[{"OBJECT_NAME":"STARLINK-5274","OBJECT_ID":"2023-014E","EPOCH":"2026-03-09T09:12:35.477280","MEAN_MOTION":14.98326744,"ECCENTRICITY":0.00030905,"INCLINATION":70,"RA_OF_ASC_NODE":65.0584,"ARG_OF_PERICENTER":264.8556,"MEAN_ANOMALY":95.2251,"EPHEMERIS_TYPE":0,"CLASSIFICATION_TYPE":"U","NORAD_CAT_ID":55395,"ELEMENT_SET_NO":999,"REV_AT_EPOCH":17201,"BSTAR":-4.1288815e-5,"MEAN_MOTION_DOT":-5.86e-6,"MEAN_MOTION_DDOT":0},{"OBJECT_NAME":"GSLV R\/B","OBJECT_ID":"2022-138AN","EPOCH":"2026-03-09T17:17:59.229888","MEAN_MOTION":14.96774296,"ECCENTRICITY":0.00230204,"INCLINATION":87.3876,"RA_OF_ASC_NODE":166.352,"ARG_OF_PERICENTER":146.6269,"MEAN_ANOMALY":213.6419,"EPHEMERIS_TYPE":0,"CLASSIFICATION_TYPE":"U","NORAD_CAT_ID":54149,"ELEMENT_SET_NO":999,"REV_AT_EPOCH":18393,"BSTAR":0.00032104808,"MEAN_MOTION_DOT":3.719e-5,"MEAN_MOTION_DDOT":0}]
